CENTAURI-7              
1 62708U 25009DD  26068.76467094  .00005487  00000+0  48082-3 0  9992
2 62708  97.7123 150.3372 0001973 133.1699 226.9688 14.97068612 62583
STARLINK-34666          
1 64794U 25150E   26068.56609967  .00011540  00000+0  97315-3 0  9991
2 64794  70.0022 134.9587 0003289 265.9377  94.1406 14.98338956 36493
